ONEWEB-0120             
1 47266U 20100J   25164.16487665  .00000457  00000+0  12339-2 0  9994
2 47266  87.8891  64.0781 0002060  77.2102 282.9257 13.12445478216329
ONEWEB-0121             
1 47267U 20100K   25164.45835338 -.00000076  00000+0 -24640-3 0  9999
2 47267  87.8881  63.9912 0001867  82.7999 277.3341 13.12445169216275
ONEWEB-0122             
1 47268U 20100L   25164.45332658 -.00000099  00000+0 -31021-3 0  9993
2 47268  87.8878  63.9976 0001983  82.1616 277.9738 13.12444285216185
ONEWEB-0123             
1 47269U 20100M   25163.99116803 -.00000221  00000+0 -64965-3 0  9994
2 47269  87.8887  64.1162 0001928  75.6744 284.4598 13.12445771216261
ONEWEB-0124             
1 47270U 20100N   25164.43723664 -.00000371  00000+0 -10673-2 0  9997
2 47270  87.8888  64.0256 0001660  79.9771 280.1545 13.12441418216200
ONEWEB-0125             
1 47271U 20100P   25163.95710537  .00000165  00000+0  42239-3 0  9992
2 47271  87.8890  64.0841 0001717  71.3641 288.7674 13.12440359216209
ONEWEB-0126             
1 47272U 20100Q   25164.43577618 -.00000271  00000+0 -78981-3 0  9991
2 47272  87.8910  63.9988 0001928  77.2945 282.8399 13.12443584216335
ONEWEB-0127             
1 47273U 20100R   25164.63026928  .00000302  00000+0  80315-3 0  9994
2 47273  87.8887  63.9829 0002061  78.4716 281.6644 13.12445322216388
